[{"OBJECT_NAME":"APRIZESAT 9","OBJECT_ID":"2014-033J","EPOCH":"2026-03-09T21:41:56.274720","MEAN_MOTION":14.74074549,"ECCENTRICITY":0.00668309,"INCLINATION":97.8881,"RA_OF_ASC_NODE":204.6298,"ARG_OF_PERICENTER":158.5228,"MEAN_ANOMALY":201.8809,"EPHEMERIS_TYPE":0,"CLASSIFICATION_TYPE":"U","NORAD_CAT_ID":40018,"ELEMENT_SET_NO":999,"REV_AT_EPOCH":62893,"BSTAR":0.0001991333,"MEAN_MOTION_DOT":1.306e-5,"MEAN_MOTION_DDOT":0},{"OBJECT_NAME":"CZ-6A DEB","OBJECT_ID":"2022-151WF","EPOCH":"2026-03-09T14:53:51.510048","MEAN_MOTION":14.70635082,"ECCENTRICITY":0.0104309,"INCLINATION":98.441,"RA_OF_ASC_NODE":113.6179,"ARG_OF_PERICENTER":171.4887,"MEAN_ANOMALY":188.8119,"EPHEMERIS_TYPE":0,"CLASSIFICATION_TYPE":"U","NORAD_CAT_ID":55214,"ELEMENT_SET_NO":999,"REV_AT_EPOCH":17090,"BSTAR":0.0014323,"MEAN_MOTION_DOT":9.434e-5,"MEAN_MOTION_DDOT":0}]
